[{"OBJECT_NAME":"APRIZESAT 1","OBJECT_ID":"2004-025G","EPOCH":"2026-03-09T23:27:31.277376","MEAN_MOTION":14.51715108,"ECCENTRICITY":0.00458388,"INCLINATION":98.6346,"RA_OF_ASC_NODE":76.9867,"ARG_OF_PERICENTER":96.737,"MEAN_ANOMALY":263.9043,"EPHEMERIS_TYPE":0,"CLASSIFICATION_TYPE":"U","NORAD_CAT_ID":28372,"ELEMENT_SET_NO":999,"REV_AT_EPOCH":14751,"BSTAR":0.00011028964,"MEAN_MOTION_DOT":4.0e-6,"MEAN_MOTION_DDOT":0},{"OBJECT_NAME":"COSMOS 2251 DEB","OBJECT_ID":"1993-036APN","EPOCH":"2026-03-09T00:40:15.539232","MEAN_MOTION":14.48497938,"ECCENTRICITY":0.0039319,"INCLINATION":74.0152,"RA_OF_ASC_NODE":277.5052,"ARG_OF_PERICENTER":69.5024,"MEAN_ANOMALY":81.5511,"EPHEMERIS_TYPE":0,"CLASSIFICATION_TYPE":"U","NORAD_CAT_ID":35671,"ELEMENT_SET_NO":999,"REV_AT_EPOCH":88012,"BSTAR":0.0001986008,"MEAN_MOTION_DOT":7.25e-6,"MEAN_MOTION_DDOT":0}]
